latitude,longitude,Name,Owner_Current,Contact,Status,YearClosed,Names_Prior_Manual,Names_Prior_Directory,Owner_Prior,MillType,Feedstock,Products,Species,LogDiamMIN,Phone,City,State,Zip,RecordEditor,Source,,PrimaryKey
42.052701,-124.290912,South Coast Lbr. Veneer & Plywood and SouthCoast Lbr. Dimension & Stud Sawmills,,,Open,,,,,Sawmill,Logs,Lumber,,,,Brookings,OR,97415,Larry Swan,,,9024
40.726151,-124.219677,Pozun Brothers,,,Closed,1977,,,,Sawmill,Logs,,,,,Fields Landing,CA,,,,,9202
40.80577621,-124.1958033,Evergreen Pulp,Freshwater Tissue Co?,,Closed,2010,"Louisiana Pacific, GP, Simpson, ETC",,,Pulp Mill,Chips,Pulp,,,,Samoa,CA,,Larry Swan,,,9102
41.75699,-124.192585,McNamara & Peepe Lumber (Crescent City),,,Closed,1987,,,,Sawmill,Logs,,,,,Crescent City,CA,,,,,9193
41.790809,-124.187742,Diebold Mills,,,Closed,1971,,,,Sawmill,Logs,,,,,Smith River,CA,,,,,9267
41.793081,-124.1869,Northcrest,,,Closed,1987,,,,Sawmill,Logs,,,,,Crescent City,CA,,,,,9194
41.791097,-124.18658,B&R Sawmills Inc,,,Closed,1974,,,,Sawmill,Logs,,,,,Crescent City,CA,,,,,9190
40.79719014,-124.1815646,Schmidbauer Lbr. Co. Sawmill,,,Open,,Schmidbauer Lumber,,,Sawmill,Logs,Lumber,"Redwood, Douglas-fir, Hemlock",,(707) 443-7089,Eureka,CA,95501,Larry Swan,,,9001
41.75348006,-124.1753922,Hambro Forest Products Particle Bd.,,,Closed,2012,"Hambro Forest Products, Inc.",,,Composite Panel,"Chips, Shavings, Sawdust",Particleboard,,,(707) 464-6131,Crescent City,CA,95531,Larry Swan,,,9041
40.596786,-124.160365,Crown Redwood,,,Closed,1977,,,,Sawmill,Logs,,,,,Fortuna,CA,,,,,9206
40.865848,-124.152849,SPI Arcata Sawmill,Sierra Pacific Industries,Jerry Kelly Division Mgr,Open,,Sierra Pacific Industries,,,Sawmill,Logs,Lumber,"Douglas-fir, Ponderosa Pine, Incense Cedar, True fir",,(707) 443-3111,Arcata,CA,95521,Larry Swan,,,9017
40.587407,-124.152061,Pacific Lumber Company,,,Closed,2003,,,,Sawmill,Logs,Lumber,,,,Fortuna,CA,,Rick Satomi,Random Lengths,,9052
40.865432,-124.151866,Brightwood Lumber,,,Closed,1973,,,,Sawmill,Logs,,,,,Arcata,CA,95521,,,,9164
40.539708,-124.146753,Enevoldsen Lumber,,,Closed,1975,,,,Sawmill,Logs,,,,,Fortuna,CA,,,,,9208
40.557569,-124.145619,CW Mills,,,Closed,1995,,,,Sawmill,Logs,Lumber,,,,Fortuna,CA,,Rick Satomi,Random Lengths,,9049
41.92688,-124.14166,Simonson Lumber-Logging Company (2 mills),,,Closed,1983,,,,Sawmill,Logs,,,,,Smith River,CA,,,,,9268
40.513799,-124.124075,Eel River (Mill A),,,Closed,2007,,,,Sawmill,Logs,Lumber,"Redwood, Douglas-fir, Hemlock",,,Fortuna,CA,,Rick Satomi,Random Lengths,,9051
40.545985,-124.120544,Eel River (Alton),,,Closed,1991,,,,Sawmill,Logs,Lumber,,,,Fortuna,CA,,Rick Satomi,Random Lengths,,9050
40.483615,-124.102748,Humboldt Redwood Co. Sawmill,Humboldt Redwood Company,Mike Cameron Sales Manager,Open,,"Pacific Lumber Co., Scotia, CA",,Palco Mill,Sawmill,Logs,Lumber,"DF, Redwood",,707-764-4341,Scotia,CA,95565,Larry Swan,,,9103
41.149698,-124.102111,Louisiana Pacific (Trinidad),Louisiana Pacific,,Closed,1999,Hammond Lumber Company,,,Sawmill,Logs,Lumber,,,,Trinidad,CA,,Rick Satomi,Random Lengths,,9114
41.735486,-124.097305,Miller Redwood,,,Closed,1995,,,,Sawmill,Logs,Lumber,,,,Crescent City,CA,,Rick Satomi,Random Lengths,,9042
40.86811,-124.092833,All-Brite Lumber Company (Arcata),,,Closed,1976,,,,Sawmill,Logs,,"RW, DF",,,Arcata,CA,95521,,,,9162
40.880272,-124.087932,Twin Parks Lumber,,,Closed,1979,,,,Sawmill,Logs,,,,,Arcata,CA,95521,,,,9168
40.885948,-124.081698,Mad River Lbr. Sawmill,,,Open,,Mad River Lumber,,,Sawmill,Logs,Fence Boards,redwood,,(707) 822-4384,Arcata,CA,95521,Larry Swan,,,9016
40.899619,-124.075427,Humboldt Flakeboard Particle Bd.,,,Liquidated,,Humboldt Flakeboard Panels,,,Composite Panel,Chips,Particleboard,,,(707) 825-1800,Arcata,CA,95521,Larry Swan,,,9015
40.901169,-124.071143,Arcata Forest Products Sawmill,Bob Figas Owner,,Open,,,,"Britt Lumber, Subsidiary of PALCO",Sawmill,Logs,Lumber,"RW, DF",,(707) 822-1779,Arcata,CA,95518,Larry Swan,,,9012
40.911424,-124.067932,Almquist Lumber Co,Eric Almquist Owner,,Open,,,,,Small Production Mill,Logs,Lumber,Hardwood,,707-825-8880,Arcata,CA,95521,Rick Satomi,"Montana Dataset 2,012",,9010
40.535639,-124.066792,Carlotta Lumber Company,,,Closed,1986,,,,Sawmill,Logs,,,,,Carlotta,CA,,,,,9178
40.535207,-124.066696,Pacific Lumber Company,,,Closed,2010,,,,Sawmill,Logs,Lumber,,,,Carlotta,CA,,Rick Satomi,Random Lengths,,9032
41.29238545,-124.0517323,California Redwood Company (Orick),Parent company green diamond,,Liquidated,2009,"Arcata Forest Products, Arcata Redwood Company, Simpson Timber",,,Sawmill,Logs,Lumber,,,,Orick,CA,,Larry Swan,,,9081
40.888293,-124.038073,Combs Lumber,,,Closed,1991,,,,Sawmill,Logs,Lumber,,,,Arcata,CA,95521,Rick Satomi,Random Lengths,,9014
41.527335,-124.023576,Simpson Timber (klamath),,,Closed,1987,,,,Sawmill,Logs,,,,,Klamath,CA,,,,,9225
40.900502,-124.020469,McNord Lumber Company,,,Closed,1976,,,,Sawmill,Logs,,,,,Arcata,CA,95521,,,,9165
40.899185,-124.01923,Blue Lake Forest Products,,,Closed,2003,,,,Sawmill,Logs,Lumber,,,,McKinleyville,CA,,Rick Satomi,Random Lengths,,9076
40.902343,-124.018458,Trend Lumber,,,Closed,1979,"Tidewater Lumber, Bonnie Sales",,,Sawmill,Logs,,,,,Arcata,CA,95521,,,,9138
40.877484,-123.992778,Mcintosh Lumber,,,Closed,1980,,,,Sawmill,Logs,,,,,Blue Lake,CA,,,,,9171
40.87184621,-123.9632726,California Redwood Company (Korbel),California Redwood Company,Terry  Ricky Productions Manager,Closed,2015,"Simpson Timber Co., Korbel, CA",,"Simpson Timber Co, parent company green diamond",Sawmill,Logs,Lumber,"Douglas-fir, Redwood",,707-268-3000,Arcata,CA,95518,Larry Swan,,,9013
40.396941,-123.941662,Eel River Sawmills,,,Closed,1987,,,,Sawmill,Logs,,,,,Fortuna,CA,,,,,9278
40.397451,-123.940738,Eel River (Redcrest),,,Closed,2001,,,,Sawmill,Logs,Lumber,,,,Redcrest,CA,,Rick Satomi,Random Lengths,,9096
40.26599,-123.873742,Georgia Pacific,,,Closed,1980,Morrison & Jackson,,,Sawmill,Logs,,,,,Myers Flat,CA,,,,,9152
39.444586,-123.810007,Georgia Pacific,,,Closed,2002,,,,Sawmill,Logs,Lumber,,,,Ft. Bragg,CA,,,,,9053
39.383489,-123.806113,Mendocino Forest Products (Fort Bragg),,,Closed,2004,"Georgia Pacific, Louisiana Pacific",,,Sawmill,Logs,Lumber,,,,Ft. Bragg,CA,,Rick Satomi,Random Lengths,,9054
39.964841,-123.796843,Coombs Lumber,,,Closed,1974,,,,Sawmill,Logs,,,,,Piercy,CA,,,,,9249
41.081114,-123.690886,Masonite (Hoopa),,,Closed,1980,Humboldt Fir,,,Sawmill,Logs,,,,,Hoopa,CA,,,,,9150
42.10528814,-123.6787754,Rough & Ready Lbr. Co.,Rough & Ready Lbr. Co.,"Link Phillippi, President/ Co-owner",Open,,,,,Sawmill,Logs,Lumber,"PP, DF (no WF or IC)",,(541) 592-3116,Cave Junction,OR,97523,Larry Swan,,,9033
41.034418,-123.655912,Cal Pacific Manufacturing (Hoopa),,,Closed,1983,,,,Sawmill,Logs,,,,,Hoopa,CA,,,,,9222
39.65411548,-123.6269559,Harwood Products (Branscomb),,Jim Little Resource Manager,Liquidated,2008,"Harwood Forest Products, Branscomb, CA",,,Sawmill,Logs,Lumber,"Redwood, Douglas-fir, Hemlock",,707-984-6181,Branscomb,CA,95417,Larry Swan,,,9023
40.942856,-123.626234,Pilot Lumber,,,Closed,1991,,,,Sawmill,Logs,Lumber,,,,Willow Creek,CA,,Rick Satomi,Random Lengths,,9130
40.490737,-123.607094,Louisiana Pacific (Dinsmore),,,Closed,1978,LP,,,Sawmill,Logs,,,,,Dinsmore,CA,,,,,9146
40.158935,-123.602894,Louisiana Pacific (Alderpoint),,,Closed,1987,"Georgia Pacific, E.A. Reynolds Mill and Lumber",,,Sawmill,Logs,,,,,Alderpoint,CA,,,,,9137
40.884553,-123.600023,Carolina California Plywood (Salyer),,,Closed,1977,,,,Sawmill,Logs,,,,,Salyer,CA,,,,,9260
39.674002,-123.505147,Philo Lumber (Laytonville),,,Closed,1983,,,,Sawmill,Logs,,,,,Laytonville,CA,,,,,9228
40.639,-123.491,Hyampom Lumber,,,Closed,1983,,,,Sawmill,Logs,,,,,Hyampom,CA,,,,,9223
40.806801,-123.474496,Stone Forest Products (Burnt Ranch),Stone Forest Products,,Closed,1989,Southwest Forest Industries,,Southwest Forest Industries,Sawmill,Logs,Lumber,,,,Burnt Ranch,CA,,Rick Satomi,Random Lengths,,9028
39.066464,-123.442657,Redwood Empire Philo Sawmill,RJS Timber Products,Zeke Sechrest Resource Manager,Closed,1995,,,,Sawmill,Logs,Lumber,,,(707) 895-9600,Philo,CA,95466,Larry Swan,,,9004
39.063991,-123.439141,Philo Lumber (Philo),,,Closed,1987,,,,Sawmill,Logs,,,,,Philo,CA,,,,,9248
41.800375,-123.36769,Stone Forest Products (Happy Camp),Stone Forest Products,,Closed,1993,Southwest Forest Industries,,Southwest Forest Industries,Sawmill,Logs,Lumber,,,,Happy Camp,CA,,Rick Satomi,Random Lengths,,9059
39.402908,-123.360812,Harwood (Willits Mill),,,Closed,1988,,,,Sawmill,Logs,Lumber,,,,Willits,CA,,Rick Satomi,Random Lengths,,9127
39.403232,-123.358427,Willits Redwood Sawmill,Bruce  Burton Owner,,Open,,"Willits Redwood Co, harrah lumber",,,Sawmill,Logs,Lumber,"redwood, DF",,(707) 459-4549,Willits,CA,95490,Larry Swan,,,9126
39.450394,-123.350192,Louisiana Pacific,,,Closed,1997,,,,Sawmill,Logs,Lumber,,,,Willits,CA,,Rick Satomi,Random Lengths,,9128
39.79271,-123.247404,B&T Lumber,,,Closed,1975,,,,Sawmill,Logs,,,,,Covelo,CA,,,,,9189
39.17842,-123.230076,Hollow Tree Lumber,,,Closed,1974,,,,Sawmill,Logs,,,,,Ukiah,CA,95482,,,,9281
39.269241,-123.222445,Hamson Lumber Company,,,Closed,1980,,,,Sawmill,Logs,,,,,Redwood Valley,CA,,,,,9257
39.8174833,-123.20695,Louisiana Pacific (Covelo),Louisiana pacific,,Closed,1993,,,,Sawmill,Logs,Lumber,,,,Covelo,CA,,Peter Tittmann,FORM RESPONSES,,9040
39.173757,-123.206264,Masonite ( Ukiah),Masonite,,Closed,,,,,Sawmill,Logs,,,,,Ukiah,CA,,,,,9118
39.184984,-123.204469,Georgia Pacific (Ukiah),,,Closed,1974,,,,Sawmill,Logs,,,,,Ukiah,CA,95482,,,,9280
39.183738,-123.203868,Mendocino Forest Products Sawmill (Ukiah),,Tim Tanner Sales Manager,Open,,"Palco, LP",,Mendocino Redwood Co,Sawmill,Logs,Lumber,"RW, DF",,(707) 463-5110,Ukiah,CA,95482,Larry Swan,,,9119
39.17958875,-123.2036368,Agwood Mill & Lbr.,,Mark Sparso V.P.,Open,,Agwood Mill & Lumber Inc,,,Sawmill,Logs,Lumber,"DF, redwood",,(707) 468-5486,Ukiah,CA,95482,Larry Swan,Personal contact,,9117
39.238004,-123.200771,Timber Realization Company,,,Closed,1990,,,,Sawmill,Logs,Lumber,,,,Calpella,CA,,Rick Satomi,Random Lengths,,9029
42.424954,-123.162117,Murphy Softwood Plywood Plant,Murphy Company Veneer,,Open,,,,,Plywood Layup,"Veneer
",,,,,Rogue River,OR,97537,Larry Swan,,,9056
40.55016,-123.146741,SPI Hayfork Sawmill,Sierra Pacific Industries,,Closed,1997,,,,Sawmill,Logs,Lumber,,,,Hayfork,CA,,Rick Satomi,Random Lengths,,9060
39.380906,-123.106023,Louisiana Pacific Potter Valley Mill,Wes Fairbairn,,Closed,1990,,,,Sawmill,Logs,Lumber,,,,Potter Valley,CA,95469,Larry Swan,,,9089
40.38581,-123.064106,Kimberly-Clark Corporation,,,Closed,1978,,,,Sawmill,Logs,,,,,Wildwood,CA,,,,,9286
38.46454832,-123.0410353,Berry's Sawmill,Bruce Berry Owner,,Open,,Berry Sawmill & Lumber Yard,,,Sawmill,Logs,Lumber,"RW, DF",,(707) 865-2365,Cazadero,CA,95421,Larry Swan,,,9034
38.819887,-123.020247,Barnes Lumber,,,Closed,1974,,,,Sawmill,Logs,,,,,Cloverdale,CA,,,,,9183
38.820891,-123.018623,Redwood Empire (Cloverdale),,Zeke Sechrest Resource Manager,Open,,"Preston Lumber Corporation (Cloverdale Plant), Richardson Lumber",,Preston Lumber Corporation (Cloverdale Plant),Sawmill,Logs,Lumber,"Redwood, Douglas-fir, Hemlock",,(707) 894-4242,Cloverdale,CA,95425,Larry Swan,,,9039
38.822357,-123.017224,G&R Lumber,,,Closed,1983,,,,Sawmill,Logs,,,,,Cloverdale,CA,,,,,9185
38.829085,-123.01282,Preston Lumber Corporation,,,Closed,1996,"Richardson Lumber, Davies Lumber",,,Sawmill,Logs,,,,,Cloverdale,CA,,,,,9143
38.779133,-123.008295,Masonite (Cloverdale),,,Closed,1983,Molalla Forest Products,,,Sawmill,Logs,,,,,Cloverdale,CA,,,,,9144
38.785937,-123.002653,Louisiana Pacific (Cloverdale),,,Closed,1993,,,,Sawmill,Logs,Lumber,,,,Cloverdale,CA,,Rick Satomi,Random Lengths,,9038
38.354315,-122.980987,Chenoweth Lumber Company,,,Closed,1978,,,,Sawmill,Logs,,,,,Bodega,CA,,,,,9172
40.725091,-122.93143,Schmidbauer Lumber,,,Closed,1987,,,,Sawmill,Logs,,,,,Weaverville,CA,,,,,9284
40.72493045,-122.9306377,Trinity River Lbr Co. Sawmill,,Dee  Sanders General Manager,Open,,Trinity River Lumber Co,,,Sawmill,Logs,Lumber,DF,,(530) 623-5561,Weaverville,CA,96093,Larry Swan,,,9120
42.34711,-122.889474,SierraPine Medford MDF,"SierraPine ,an affiliate of Timber Products Co.",,Open,,,,,Composite Panel,Sawdust/ Shavings/ Chips,MDF,,,541-773-2522,Medford,OR,,Larry Swan,,,9297
38.644977,-122.871164,Idaco Lumber,,,Closed,1974,,,,Sawmill,Logs,,,,,Healdsburg,CA,,,,,9218
38.607239,-122.868822,Sonoma Wood Products,,,Closed,1976,,,,Sawmill,Logs,,,,,Healdsburg,CA,,,,,9219
42.435871,-122.866862,Timber Products Co. Particle Board and Plywood Mills,,,Open,,,,,Sawmill,Logs,,,,,White City,OR,97503,Larry Swan,,,9125
42.43270557,-122.8592083,Murphy Co. Plywood Layup,,,Open,,,,,Sawmill,Logs,,,,,White City,OR,97503,Larry Swan,,,9124
42.433787,-122.858651,Murphy Softwood Veneer Plant,Murphy Company Veneer,,Open,,,,,Veneer,Logs,Veneer,"DF, WF",,,White City,OR,97503,Larry Swan,,,9123
42.430189,-122.852102,Boise Wood Products Veneer/LVL/Plywood,Boise,,Open,,,,,Veneer,Logs,Veneer,,,,White City,OR,9750,Larry Swan,,,9122
41.607549,-122.840245,Eastlick Mills,,,Closed,1971,,,,Sawmill,Logs,,,,,Fort Jones,CA,,,,,9204
38.543215,-122.812538,Windsor Mill,,,Closed,1987,,,,Sawmill,Logs,,,,,Windsor,CA,,,,,9288
41.318858,-122.80933,"Hjertager, E.J. & Son Lumber",,,Closed,1974,,,,Sawmill,Logs,,,,,Callahan,CA,,,,,9176
41.579787,-122.70358,Butler Forest Products,,,Closed,1997,,,,Sawmill,Logs,Lumber,,,,Ft. Jones,CA,,Rick Satomi,Random Lengths,,9055
41.715588,-122.63428,Pine Mountain Lumber,,,Closed,1987,,,,Sawmill,Logs,,,,,Yreka,CA,96097,,,,9290
41.708698,-122.632487,Sharp Lumber,,,Closed,1972,,,,Sawmill,Logs,,,,,Yreka,CA,96097,,,,9291
41.994425,-122.631222,Fruit Growers Supply,,,Closed,1975,,,,Sawmill,Logs,,,,,Hilt,CA,,,,,9221
41.732535,-122.59341,SPI Siskiyou Sawmill,,,Closed,1976,,,,Sawmill,Logs,,,,,Yreka,CA,96097,,,,9289
41.737758,-122.593349,Fruit Growers Supply Company,Sun Kist Cooperative,"Larry Jellison, Consultant",Developing,,Hi-Ridge,,,Sawmill,Logs,Lumber,"PP, DF, WF, LPP",,,Yreka,CA,96097,Larry Swan,Random Lengths,,9131
41.73064723,-122.5929565,Timber Products Veneer Mill,Timber Products Company,"Michael Don, Mill Manager
",Open,,Timber Products Co,,,Veneer,Logs,Veneer,"DF, WF Shasta RF, pine and other.  No IC.",,(530) 842-2310,Yreka,CA,96097,Larry Swan,,,9133
41.732792,-122.591179,"Shasta Forest Products, Inc.",Richard  Conroy President/CEO,,Open,,,,,Bark Processor,Bark,Bark Products,,,(530) 842-2785,Yreka,CA,96097,Rick Satomi,"Montana Dataset 2,012",,9132
39.885429,-122.541257,Crane Mills,Crane Mills,,closed,1993,,,,Sawmill,Logs,Lumber,,,,Paskenta,CA,96074,Larry Swan,,,9086
39.587495,-122.540479,Commander Lumber Co.,Leon Whitney,,Unknown,,,,,Sawmill,Logs,Lumber,,,,Elk Creek,CA,,Larry Swan,,,9047
40.500658,-122.450707,Butler Forest Products,,,Closed,1997,,,,Sawmill,Logs,Lumber,,,,Redding,CA,,Rick Satomi,Random Lengths,,9097
38.245964,-122.445181,Sonoma Pacific,,,Closed,1987,,,,Sawmill,Logs,,,,,Schellville,CA,,,,,9265
40.509517,-122.424433,Redding Power,,,Closed,1992,,,,Sawmill,Logs,Lumber,,,,Redding,CA,,Rick Satomi,Random Lengths,,9098
40.587103,-122.3915,Heron Mills,,,Closed,1975,,,,Sawmill,Logs,,,,,Redding,CA,,,,,9254
40.675837,-122.380149,SPI Shasta Lake Sawmill,Sierra Pacific Industries,John Phillips Mill Manager,Open,,Sierra Pacific Industries,,,Sawmill,Logs,Lumber,,,(530) 275-8851,Shasta Lake,CA,96019,Larry Swan,,,9104
41.43245271,-122.3794955,Roseburg Forest Products Veneer Mill,Roseburg Forest Products,"Toby Mills, Log Procurement",Open,,Roseburg Forest Products,,weed plant #7,Veneer,Logs,Veneer,,,(530) 938-2721,Weed,CA,96094,Larry Swan,,,9121
40.503613,-122.374736,Wisconsin-California,,,Closed,2003,,,,Sawmill,Logs,Lumber,,,,Redding,CA,,Rick Satomi,Random Lengths,,9099
40.484703,-122.345292,Sound Stud Sawmill,Neal Siller Co - Owner,,Closed,2009,"Sound Stud Sawmill, Anderson, CA",,,Sawmill,Logs,Lumber,"Douglas-fir, Ponderosa Pine, Hemlock",,,Yuba City,CA,96007,Larry Swan,,,9134
40.46978,-122.327068,P&M Anderson Mill,,,Closed,1995,,,,Sawmill,Logs,Lumber,,,,Anderson,CA,,Rick Satomi,Random Lengths,,9006
40.471498,-122.320991,SPI Anderson Sawmill,"Sierra Pacific Industries
",,Open,,Sierra Pacific Industries,,,Sawmill,Logs,Lumber,"Douglas-fir, Ponderosa Pine, Incense Cedar, Hemlock-fir, Sugar Pine",,(530) 378-8000,Anderson,CA,,Larry Swan,,,9008
40.471498,-122.320991,SPI Anderson Pole Peeler Plant,"Sierra Pacific Industries
",,Open,,Sierra Pacific Industries,,,Pole Peeler,Logs,Post/Pole,"Douglas-fir, Ponderosa Pine, Incense Cedar, Hemlock-fir, Sugar Pine",,(530) 378-8000,Anderson,CA,96007,Larry Swan,,,9009
41.326214,-122.316631,P&M Mt. Shasta Mill,,,Closed,1991,,,,Sawmill,Logs,Lumber,,,,Mount Shasta,CA,,Rick Satomi,Random Lengths,,9077
41.296848,-122.307712,Roseburg Lumber (Mount Shasta),,,Closed,1987,Kimberly-Clark Corporation,,,Sawmill,Logs,,,,,Mount Shasta,CA,,,,,9151
40.436626,-122.276119,Roseburg Forest Products,Roseburg,,Closed,1993,Paul Bunyan,,,Sawmill,Logs,Lumber,,,,Anderson,CA,,Rick Satomi,Random Lengths,,9007
37.090154,-122.273326,Big Creek Lbr. Co. Sawmill,Big Creek Lumber,Janet Webb Wholesale Manager,Open,,Big Creek Lumber Co,,,Sawmill,Logs,Lumber,"DF, Redwood",,(831) 457-5015,Davenport,CA,95017,Larry Swan,,,9044
40.432118,-122.267298,Kimberly-Clark Corporation (Anderson),,,Closed,1981,,,,Sawmill,Logs,,,,,Anderson,CA,,,,,9159
40.165498,-122.231812,Roseburg Forest Products *,,,Closed,1991,Diamond Lands,,,Sawmill,Logs,Lumber,,,,Red Bluff,CA,,Rick Satomi,Random Lengths,,9092
40.133429,-122.202967,Louisiana Pacific (Red Bluff),,,Closed,1991,,,,Sawmill,Logs,Lumber,,,,Red Bluff,CA,,Rick Satomi,Random Lengths,,9093
39.687296,-122.197715,United Bark Products,,Frank Campbell Manager,Open,,,,,Bark Processor,Bark,Bark Products,,,707-585-6056,Orland,CA,95987,Rick Satomi,"Montana Dataset 2,012",,9082
39.624125,-122.193279,Heyrend Lumber Co.,,,Closed,1993,,,,Sawmill,Logs,Lumber,,,,Artois,CA,,Rick Satomi,Random Lengths,,9018
40.12963114,-122.1878034,Lassen Forest Products,Peter   Brunello Manager,,Open,,,,,Bark Processor,Bark,Bark Products,,,(530) 527-7677,Red Bluff ,CA,96080,Larry Swan,,,9095
37.215181,-122.175363,Santa Cruz Lumber,,,Closed,1973,,,,Sawmill,Logs,,,,,Boulder Creek,CA,,,,,9174
41.263646,-122.124519,California Cedar Products Company,Steve Wiard Resource Manager,,Closed,2000,"California Cedar Products, P&M Cedar Products, California Cedar Products",,,Sawmill,Logs,Lumber,IC,,530-964-2178,McCloud,CA,96057,Rick Satomi,"Montana Dataset 2,012",,9074
41.263896,-122.117614,Terra Mai,??,,Closed,1998,Jefferson Lumber Company,,,Small Production Mill,Logs,Lumber,,,,McCloud,CA,,Rick Satomi,Random Lengths,,9075
37.047871,-122.031879,Holmes Lumber Company,,,Closed,1979,Standard Lumber Mills,,,Sawmill,Logs,,,,,Scotts Valley,CA,,,,,9155
37.360778,-121.94316,Beaver Lumber,,,Closed,1976,,,,Sawmill,Logs,,,,,Santa Clara,CA,,,,,9262
41.960639,-121.921862,American Forest Products (Dorris),,,Closed,1973,,,,Sawmill,Logs,,,,,Dorris,CA,,,,,9199
42.04369796,-121.8719792,Southern Oregon Post & Pole,,,Liquidated,,,,,Pole Peeler,Logs,,,,,Klamath Falls,OR,97603,Larry Swan,,,9067
42.25325412,-121.8060077,Jeld-Wen MDF,,,Open,,,,,Sawmill,Logs,Lumber,"PP, SP",,,Klamath Falls,OR,97601,Larry Swan,,,9065
42.25647449,-121.8046141,Jeld-Wen Thomas Lbr. Sawmill,Jelf-Wen,,Open,,,,,Sawmill,Logs,Lumber,,,,Klamath Falls,OR,97601,Larry Swan,,,9066
42.1796987,-121.8005483,Columbia Forest Products Plywood,Columbia Forest Products,"Mark Slezak, VP",Open,,,,,Veneer and Hardwood Plywood,Logs,Veneer and Hardwood Plywood,"WF, Hybrid Poplar, Hardwood Face Veneers",,,Klamath Falls,OR,,Larry Swan,,,9064
40.8782226,-121.7266623,Shasta Green Sawmill,,Tom  Franklin General Manager,Open,,"Burney Forest Products( owned by the big valley lumber company), Big Valley Lumber Mill",,,Sawmill,Logs,Lumber,"Douglas-fir, Ponderosa Pine, Incense Cedar, True Fir",,(530) 335-4924,Burney,CA,96013,Larry Swan,,,9026
40.018018,-121.713338,SPI Chico Sawmill,,,Closed,1986,"Butte Lumber Company, Webco Lumber",,,Sawmill,Logs,,,,,Chico,CA,,,,,9142
40.876365,-121.701786,SPI Burney Sawmill,Sierra Pacific Industries,,Open,,"Scott Lumber, Publishers",,,Sawmill,Logs,Lumber,"Douglas-fir, Ponderosa Pine, Incense Cedar, Hemlock, Sugar Pine",,(530) 335-3681,Burney,CA,96013,Larry Swan,,,9027
41.201179,-121.686068,Louisiana Pacific,,,Closed,1977,Cheney-Grant Lumber,,,Sawmill,Logs,,,,,Pondosa,CA,,,,,9153
40.989629,-121.621078,Louisiana Pacific (Burney),Louisiana Pacific,,Closed,1990,"Lorenz, FibreBoard",,"Lorenz, Fibreboard",Sawmill,Logs,Lumber,,,,Burney,CA,,Rick Satomi,Random Lengths,,9025
40.989058,-121.621071,Fibreboard Corporation (Burney),,,Closed,1979,Lorenz Lumber,,,Sawmill,Logs,,,,,Burney,CA,,,,,9141
39.112056,-121.608451,Unity Forest Products,,,Open,,,,,Small Production Mill,Logs,,,,800-248-4940,Yuba City,CA,,,TimberWEst,,9135
39.128913,-121.572696,Feather River Forest Products,,,Closed,1993,,,,Sawmill,Logs,Lumber,,,,Marysville,CA,,Rick Satomi,Random Lengths,,9071
39.473057,-121.57134,Louisiana Pacific(Oroville),,,Closed,1993,,,,Sawmill,Logs,Lumber,,,,Oroville,CA,,Rick Satomi,Random Lengths,,9085
39.494864,-121.565478,Diamond International (Oroville),,,Closed,1983,,,,Sawmill,Logs,,,,,Oroville,CA,,,,,9244
39.492119,-121.563359,Bald Knob Land & Timber Co.,,,Closed,1992,Cornett Lumber Company,,,Sawmill,Logs,Lumber,,,,Oroville,CA,,Rick Satomi,Random Lengths,,9083
39.48193681,-121.5632263,SPI Oroville Cedar Sawmill,Sierra Pacific Industries,Jane  Hume accountant,Open,,,,,Sawmill,Logs,Lumber,,,(530) 532-6630,Oroville,CA,95965,Larry Swan,,,9003
39.10472026,-121.5615753,Sierra Cedar Products Sawmill,Tony Sims Log buyer,,Closed,2001,Sierra Cedar Products,,,Sawmill,Logs,Lumber,,,(530) 741-8090,Marysville,CA,95901,Larry Swan,,,9073
39.480487,-121.56114,SPI Oroville Sawmill,,,Closed,1987,,,,Sawmill,Logs,,,,,Oroville,CA,,,,,9246
39.493489,-121.559577,Cal Oak Lumber,,,Closed,1983,,,,Sawmill,Logs,,,,,Oroville,CA,,,,,9245
39.461387,-121.556893,J. W. Bamford Inc. (Apex),,,Closed,2002,,,,Sawmill,Logs,Lumber,,,,Oroville,CA,,Rick Satomi,Random Lengths,,9084
39.905759,-121.524087,Diamond National (Stirling City),,,Closed,1975,,,,Sawmill,Logs,,,,,Stirling City,CA,,,,,9272
39.074678,-121.51711,Marysville Forest Products,,,Closed,1995,Erickson,,Erickson,Sawmill,Logs,Lumber,,,,Marysville,CA,,Rick Satomi,Random Lengths,,9072
38.646405,-121.385157,Champion International (Anderson),,,Closed,1987,US Plywood,,,Sawmill,Logs,,,,,Anderson,CA,,,,,9160
37.956346,-121.362798,Dover Resources,Follow-up on status,,,,,,,Pellet Mill,Sawdust / Shavings / Chips,Pellets,,,,Stockton,CA,,,,,9108
38.80935591,-121.3173498,Mallad Creek Shavings/Pellets,,,Open,,,,,"Shavings, Pellet Mill",Chips,Shavings&Pellets,,,(877) 742-8464,Rocklin,CA,95765,Larry Swan,,,9100
36.416918,-121.315902,Redwood Empire,,,Closed,1992,Sequoia Forest Products,,,Sawmill,Logs,Lumber,,,,Soledad,CA,,Rick Satomi,Random Lengths,,9105
38.90448023,-121.3070281,SPI Lincoln Sawmill,Sierra Pacific Industries,,Open,,Bohemia,,Bohemia,Sawmill,Logs,Lumber,,,(916) 645-1631,Lincoln,CA,95648,Larry Swan,,,9002
40.30330794,-121.2413703,Collins Chester Sawmill,Collins Pine Company,Jay C. Francis Forest Manager,Open,,Collins Pine Co,,,Sawmill,Logs,Lumber,"Douglas-fir, Ponderosa Pine, Incense Cedar, true fir, Hemlock, Sugar Pine",,(530) 258-2413,Chester,CA,96020,Larry Swan,Random Lengths,,9036
38.801777,-121.218444,SierraPine Rocklin MDF,,,Liquidated,,Sierra Pine Ltd,,,Composite Panel,Sawdust / Shavings / Chips,MDF,,,(916) 624-2473,Rocklin,CA,95677,Larry Swan,,,9101
40.896022,-121.179221,Little Valley Lumber (Trin-Co Forest Products),,,Closed,1983,,,,Sawmill,Logs,,,,,Little Valley,CA,,,,,9230
40.893913,-121.175403,State Box Company,,,Closed,1976,,,,Sawmill,Logs,,,,,Little Valley,CA,,,,,9231
41.121416,-121.143839,WIPE adin lumber,,,Closed,1989,,,,Sawmill,Logs,Lumber,,,,Bieber,CA,,Rick Satomi,Random Lengths,,9021
41.131333,-121.136074,Big Valley Lumber Company,Bruce Mains,,Closed,2001,,,,Sawmill,Logs,Lumber,,,,Bieber,CA,96009,Rick Satomi,Random Lengths,,9022
39.238323,-121.089604,Kubich Lumber Co,Tom Rowe Mill Manager,,Open,,,,,Sawmill,Logs,Lumber,"Incense Cedar, Sugar Pine",,(530) 272-8540,Grass Valley,CA,95945,Rick Satomi,"Montana Dataset 2,012",,9058
38.931531,-121.089078,Di Giorgio Corporation (Auburn),,,Closed,1974,Cal Ida Lumber,,,Sawmill,Logs,,,,,Auburn,CA,,,http://california-hardwood-producers.tumblr.com/post/52390129678/the-old-cal-ida-lumber-mill-that-is-now-california,,9139
39.424614,-121.066995,Sierra Mountain Mills,,,Closed,1996,,,,Sawmill,Logs,Lumber,,,,North San Juan/Camptonville,CA,,Rick Satomi,Random Lengths,,9080
39.424094,-121.066485,Sierra Mountain Mills,,,Closed,1995,,,,Sawmill,Logs,,,,,North San Juan,CA,,,,,9239
40.023359,-121.06528,High Sierra Pine Mills,,,Closed,1971,,,,Sawmill,Logs,,,,,Twain,CA,,,,,9276
38.605372,-121.057521,Wetsel-Oviatt Lumber,,,Closed,1987,Golden State building Products,,,Sawmill,Logs,,,,,El Dorado Hills,CA,,,,,9147
39.246695,-121.028033,Robinson Timber,,,Closed,1978,,,,Sawmill,Logs,,,,,Grass Valley,CA,95945,,,,9216
39.210572,-121.016481,Bohemia *,,,Closed,1992,,,,Sawmill,Logs,Lumber,,,,Grass Valley,CA,,Rick Satomi,Random Lengths,,9057
39.267159,-121.014941,Cedar Creek Horse Logging & Milling Inc.,David Vertin President,,Open,,,,,Sawmill,Logs,Lumber,,,530 265-8778,Nevada City,CA,95959,Rick Satomi,"Montana Dataset 2,012",,9078
38.194106,-120.977912,Snyder Lumber,,,Closed,1987,,,,Sawmill,Logs,,,,,Wallace,CA,,,,,9283
40.147467,-120.96181,Louisiana Pacific (Oroville),,,Closed,1981,Cheney California Lumber Company,,,Sawmill,Logs,,,,,Greenville,CA,,,,,9149
41.199896,-120.941497,Big Valley Lumber,,,Closed,1994,Edgerton Lumber Co,,,Sawmill,Logs,,,,,Adin,CA,,,,,9136
39.941512,-120.915373,Siskiyou Plumas Lumber,,,Closed,1996,,,,Sawmill,Logs,Lumber,,,,Quincy,CA,,Rick Satomi,Random Lengths,,9091
39.93866858,-120.9112616,SPI Quincy Sawmill,Sierra Pacific Industries,,Open,,Sierra Pacific Industries - Quincy Station,,,Sawmill,Logs,Lumber,,,(530) 283-2820,Quincy,CA,95971,Larry Swan,,,9090
40.094476,-120.910126,Louisiana Pacific (SIerra Division),,,Closed,1987,,,,Sawmill,Logs,,,,,Crescent Mills,CA,,,,,9195
41.444029,-120.870942,Pacific Rim Forest Products,,,Closed,2002,,,,Sawmill,Logs,Lumber,,,,Canby,CA,,Rick Satomi,Random Lengths,,9031
37.489468,-120.845266,Snider Lumber,,,Closed,1993,Snider Lumber,,Snider Lumber,Sawmill,Logs,Lumber,,,,Turlock,CA,,Rick Satomi,Random Lengths,,9116
38.680212,-120.844795,El Dorado Northern Corp,,,Inactive,,,,,Small Production Mill,Logs,Lumber,,,530-622-0940,El Dorado,CA,95623,Larry Swan,Contact,,9046
39.019667,-120.830309,Georgia Pacific,,,Closed,1994,American Forest Products,,American Forest Products,Sawmill,Logs,Lumber,,,,Foresthill,CA,,Rick Satomi,Random Lengths,,9048
38.367368,-120.808209,Georgia Pacific,??,,Closed,1998,American Forest Products,,American Forest Products,Sawmill,Logs,Lumber,,,,Martell/Jackson,CA,,Rick Satomi,Random Lengths,,9070
38.379883,-120.798731,SierraPine Martell Particleboard,"SierraPine, Affiliate of Timber Products Company",Jim Foster Manager,Open,,Sierra Pine Ltd,,,Composite Panel,Sawdust / Shavings / Chipa,Particleboard,,,(209) 223-1690,Martell,CA,95642,Larry Swan,,,9112
38.737954,-120.754462,Cornett Lumber Company,,,Closed,1991,,,,Sawmill,Logs,Lumber,,,,Placerville/Smith Flat,CA,,Rick Satomi,Random Lengths,,9088
38.738067,-120.752848,Placerville Lumber Company,,,Closed,1972,,,,Sawmill,Logs,,,,,Smithflat,CA,,,,,9269
39.863124,-120.72771,SPI Sloat Sawmill,Sierra Pacific Industries,,Closed,1992,"DG Shelter Products, Feather River Lumber",,,Sawmill,Logs,Lumber,,,,Cromberg,CA,,Rick Satomi,Random Lengths,,9156
38.79857,-120.722425,Brunswick Timber Products (Grass Valley),,,Closed,1987,,,,Sawmill,Logs,,,,,Grass Valley,CA,95945,,,,9214
38.738874,-120.681931,SPI Camino Sawmill,Sierra Pacific Industries,,Closed,,Michigan California Lumber Company,,Michigan California,Sawmill,Logs,Lumber,"Douglas-fir, Ponderosa Pine, Incense Cedar, Hemlock, Sugar Pine",,(530) 644-2311,Camino,CA,95709,Larry Swan,,,9030
40.408382,-120.648294,SPI Susanville Sawmill,Sierra Pacific Industries,,Closed,2005,,,,Sawmill,Logs,Lumber,,,,Susanville,CA,,Rick Satomi,Random Lengths,,9110
40.412303,-120.639541,Paul Bunyan Lumber (Susanville),,,Closed,1972,,,,Sawmill,Logs,,,,,Susanville,CA,,,,,9273
40.40031,-120.622419,Susanville Forest Products,,,Closed,1994,,,,Sawmill,Logs,Lumber,,,,Susanville,CA,,Rick Satomi,Random Lengths,,9111
40.401479,-120.621615,Coin Lumber,,,Closed,1980,Susanville Lumber,,,Sawmill,Logs,,,,,Susanville,CA,,,,,9157
41.485402,-120.57697,WTD Industries,,,Closed,1992,,,,Sawmill,Logs,Lumber,,,,Alturas,CA,,Rick Satomi,Random Lengths,,9005
38.581136,-120.565476,Wetsel-Oviatt Lumber,,,Closed,1974,,,,Sawmill,Logs,,,,,Omo Ranch,CA,,,,,9242
38.445875,-120.529679,P&M Pioneer Mill,,,Closed,2000,,,,Sawmill,Logs,Lumber,,,,Pioneer,CA,,Rick Satomi,Random Lengths,,9087
38.379808,-120.529139,American Forest Products (Wilseyville),,,Closed,1971,,,,Sawmill,Logs,,,,,Wilseyville,CA,,,,,9287
37.83790896,-120.5063675,SPI Keystone Plant,Sierra Pacific Industries,Kristin Taylor Plant Accountant,Open,,"Sierra Pacific Industries, Keystone, Louisiana pacific (Jamestown)",,,Bark Processor,Bark,Bark Products,,,,Jamestown,CA,96019,Larry Swan,,,9063
37.83896858,-120.5037001,California Wood Shavings,"American Wood Fibers, Inc.","Mark Medearis, VP",Open,,California Wood Shavings,,,Whole Log Shaver,Logs,Shavings,pine,,209) 984-1150,Jamestown,CA,95327,Larry Swan,,,9062
37.88282739,-120.4536966,SPI Chinese Camp Sawmill,Sierra Pacific Industries,,Open,,Sierra Pacific Industries,,Fibreboard,Sawmill,Logs,Fence Boards,"IC, WF",,(209) 984-5241,Chinese Camp,CA,95309,Larry Swan,,,9037
39.624336,-120.435078,Holstrom Lumber,,,Closed,1987,,,,Sawmill,Logs,,,,,Sattley,CA,,,,,9264
37.971532,-120.374556,Whitt Manufacturing Company,,,Closed,1987,,,,Sawmill,Logs,,,,,Sonora,CA,,,,,9271
38.043786,-120.344941,"Hatler and Company, Vernon E.",,,Closed,1986,,,,Sawmill,Logs,,,,,Sonora,CA,,,,,9270
37.96333505,-120.3174788,SPI Sonora Sawmill,Sierra Pacific Industries,,Open,,"Fibreboard, Louisiana Pacific",,,Sawmill,Logs,Lumber,"Douglas-fir, Ponderosa Pine, Incense Cedar, Hemlock, Sugar Pine",,(209) 588-0673,Sonora,CA,95370,Larry Swan,,,9107
38.002344,-120.263451,Deutschman Lumber Co.,Bob Deutschman Owner,,Closed,1999,,,,Sawmill,Logs,Lumber,,,(209) 532-5770,Sonora,CA,,Rick Satomi,"Montana Dataset 2,012",,9106
39.669485,-120.240116,SPI Loyalton Sawmill,,,Closed,2002,,,,Sawmill,Logs,Lumber,,,,Loyalton,CA,,Rick Satomi,Random Lengths,,9068
41.532792,-120.182516,Surprise Valley Lumber Co.,,,Closed,1996,,,,Sawmill,Logs,Lumber,,,,Cedarville,CA,,Rick Satomi,Random Lengths,,9035
39.330244,-120.180058,Louisiana Pacific (Truckee),Louisiana Pacific,,Closed,1990,Fibreboard,,,Sawmill,Logs,Lumber,,,,Truckee,CA,,Rick Satomi,Random Lengths,,9115
36.918092,-119.973046,Norby Lumber Co.,,,Closed,1996,,,,Sawmill,Logs,Lumber,,,,Madera,CA,,Rick Satomi,Random Lengths,,9069
37.565468,-119.861224,Scott Lumber,,,Closed,1978,,,,Sawmill,Logs,,,,,Mariposa,CA,,,,,9234
36.871047,-119.747674,Emmert Forest Products,,,Closed,1975,,,,Sawmill,Logs,,,,,Clovis ,CA,,,address associated with workorder for truck parts. now housing development,,9188
36.816843,-119.745069,Wickes Forest Industries (Fresno),,,Closed,1982,Emert Forest Products,,,Sawmill,Logs,,,,,Fresno,CA,,,,,9148
37.331078,-119.658176,American Forest Products/Bendix Forest Products (Oakhurst),,,Closed,1982,,,,Sawmill,Logs,,,,,Oakhurst,CA,,,,,9240
37.234574,-119.493647,Sequoia Forest Products,,,Closed,1995,,,,Sawmill,Logs,Lumber,,,,North Fork,CA,,Rick Satomi,Random Lengths,,9079
37.066082,-119.492324,Sequoia Forest Products,,,Closed,1995,,,,Sawmill,Logs,Lumber,,,,Auberry,CA,,Rick Satomi,Random Lengths,,9019
36.569581,-119.418984,Sequoia Forest Products,,,Closed,2001,,,,Sawmill,Logs,Lumber,,,,Dinuba/Reedley,CA,,Rick Satomi,Random Lengths,,9045
37.021679,-119.401732,Yancey Lumber Company,,,Closed,1974,,,,Sawmill,Logs,,,,,Tollhouse,CA,,,,,9274
36.194776,-119.343654,Lampe Lumber,,,Closed,1972,,,,Sawmill,Logs,,,,,Tulare,CA,,,,,9275
37.064993,-119.164668,Bendix Forest Products,,,Closed,1983,American Forest Products (Dinkey Creek),,,Sawmill,Logs,,,,,Dinkey Creek,CA,,,,,9145
35.95409644,-119.0489178,Sierra Forest Products Sawmill,,Larry  Duysen Logging Supt.,Open,,Sierra Forest Products,,,Sawmill,Logs,Lumber,"PP, WF, SP, LPP, IC",,(559) 535-4893,Terra Bella,CA,93270,Larry Swan,,,9113
35.97497,-118.536671,American Forest Products,,,Closed,1980,,,,Sawmill,Logs,,,,,Johnsondale,CA,,,,,9224
35.842606,-117.870542,Louisiana Pacific (Inyokern),Louisiana Pacific,,Closed,1990,,,,Sawmill,Logs,Lumber,,,,Inyokern/Pearsonville,CA,,Rick Satomi,Random Lengths,,9061
34.252006,-117.24117,Twin Peaks Timber Products,,,Closed,1983,,,,Sawmill,Logs,,,,,Twin Peaks,CA,,,,,9279
34.088776,-117.189339,Golden Bear Forest Products,,,Closed,1987,Big Bear Timber Company,,,Sawmill,Logs,,,,,Redlands,CA,,,,,9154
34.110925,-117.188417,McKeen Sawmill,,,Closed,1971,,,,Sawmill,Logs,,,,,Highland,CA,,,,,9220
33.925539,-116.968097,Priority Pallets Sawmill,"Commercial Lumber and Pallet Company, City of Industry",Kathleen Dietrich VP,Open,,Priority Pallets Sawmill,,,Sawmill,Logs,Lumber,"PP, SP, WF",,909-376-8647,Beaumont,CA,92223,Larry Swan,,,9020
